{
  "norad_id": 57404,
  "name": "STARLINK-30240",
  "history": [
    {
      "epoch": "2026-03-28T12:56:52.800864Z",
      "apogee_km": 486.8234853807335,
      "perigee_km": 484.3250944712008,
      "latitude_deg": -2.357997732254543e-05,
      "longitude_deg": 121.86907999747142,
      "height_km": 485.6832510410814,
      "semi_major_axis_km": 6863.711289925967,
      "eccentricity": 0.000182,
      "inclination_deg": 43.0053,
      "raan_deg": 142.0476,
      "arg_perigee_deg": 254.6184,
      "mean_anomaly_deg": 105.4466,
      "mean_motion_rev_day": 15.26737071
    }
  ]
}