{"fetched_at":"2026-03-29T16:36:15Z","count":15609,"tles":[{"name":"STARLINK-30240","line1":"1 57404U 23102A   26087.53950001  .00000969  00000+0  45833-4 0  9994","line2":"2 57404  43.0053 142.0476 0001820 254.6184 105.4466 15.26737071149124","category":"Starlink"}]}